NORAD_CAT_ID,OBJECT_NAME,OBJECT_TYPE,EPOCH,MEAN_MOTION,ECCENTRICITY,INCLINATION,RA_OF_ASC_NODE,ARG_OF_PERICENTER,MEAN_ANOMALY,BSTAR,MEAN_MOTION_DOT,MEAN_MOTION_DDOT,TLE_LINE0,TLE_LINE1,TLE_LINE2,SEMIMAJOR_AXIS,PERIOD,APOGEE,PERIGEE,DECAYED
51770.0,STARLINK-3612,PAYLOAD,2022-09-07 14:00:01,15.08812677,0.0001659,53.217,321.2465,55.7514,281.1344,0.002382,0.00037797,0.0,0 STARLINK-3612,1 51770U 22017C   22250.58334491  .00037797  00000-0  23820-2 0  9990,2 51770  53.2170 321.2465 0001659  55.7514 281.1344 15.08812677 30956,6917.964,95.439,540.977,538.681,0.0
51770.0,STARLINK-3612,PAYLOAD,2022-09-07 22:00:00,15.08843227,0.0001551,53.2168,319.7487,58.0032,290.4587,-0.00072588,-0.00011823,0.0,0 STARLINK-3612,1 51770U 22017C   22250.91667824 -.00011823  00000-0 -72588-3 0  9996,2 51770  53.2168 319.7487 0001551  58.0032 290.4587 15.08843227  1305,6917.871,95.437,540.808,538.663,0.0
51770.0,STARLINK-3612,PAYLOAD,2022-09-08 06:00:00,15.08856661,0.0001563,53.2169,318.2522,62.0453,298.0083,0.00022131,3.237e-05,0.0,0 STARLINK-3612,1 51770U 22017C   22251.25001157  .00003237  00000-0  22131-3 0  9992,2 51770  53.2169 318.2522 0001563  62.0453 298.0083 15.08856661 31051,6917.829000000002,95.437,540.776,538.613,0.0
51770.0,STARLINK-3612,PAYLOAD,2022-09-08 14:00:01,15.08843834,0.0001675,53.2169,316.7575,53.4097,318.258,0.0007806,0.00012158,0.0,0 STARLINK-3612,1 51770U 22017C   22251.58334491  .00012158  00000-0  78060-3 0  9992,2 51770  53.2169 316.7575 0001675  53.4097 318.2580 15.08843834  1304,6917.869000000002,95.437,540.8919999999998,538.575,0.0
51770.0,STARLINK-3612,PAYLOAD,2022-09-09 00:00:02,15.08818512,0.0001441999999999,53.2168,314.8852,55.79600000000001,60.4577,0.0025539,0.00040568,0.0,0 STARLINK-3612,1 51770U 22017C   22252.00002315  .00040568  00000-0  25539-2 0  9995,2 51770  53.2168 314.8852 0001442  55.7960  60.4577 15.08818512  1303,6917.946,95.439,540.809,538.814,0.0
51770.0,STARLINK-3612,PAYLOAD,2022-09-09 06:00:00,15.08856133,0.0001521999999999,53.2169,313.7633,57.4987,337.3737,-0.0002492,-4.254e-05,0.0,0 STARLINK-3612,1 51770U 22017C   22252.25001157 -.00004254  00000-0 -24920-3 0  9993,2 51770  53.2169 313.7633 0001522  57.4987 337.3737 15.08856133 31203,6917.831,95.437,540.749,538.643,0.0
51770.0,STARLINK-3612,PAYLOAD,2022-09-09 14:00:01,15.08846891,0.0001643,53.2168,312.2685,49.0009,357.4898,0.00021959,3.209e-05,0.0,0 STARLINK-3612,1 51770U 22017C   22252.58334491  .00003209  00000-0  21959-3 0  9995,2 51770  53.2168 312.2685 0001643  49.0009 357.4898 15.08846891  1308,6917.859,95.437,540.861,538.5880000000002,0.0
51770.0,STARLINK-3612,PAYLOAD,2022-09-09 22:00:00,15.08832637,0.0001462,53.2169,310.7704,51.1856,6.9169,0.00047783,7.323e-05,0.0,0 STARLINK-3612,1 51770U 22017C   22252.91667824  .00007323  00000-0  47783-3 0  9995,2 51770  53.2169 310.7704 0001462  51.1856   6.9169 15.08832637  1307,6917.903,95.438,540.779,538.756,0.0
51770.0,STARLINK-3612,PAYLOAD,2022-09-10 06:00:02,15.08870678,0.0001459,53.217,309.2741,52.0656,17.6762,-0.0035399999999999,-0.00056234,0.0,0 STARLINK-3612,1 51770U 22017C   22253.25002315 -.00056234  00000-0 -35400-2 0  9990,2 51770  53.2170 309.2741 0001459  52.0656  17.6762 15.08870678 31350,6917.7869999999975,95.436,540.661,538.6419999999998,0.0
51770.0,STARLINK-3612,PAYLOAD,2022-09-10 14:00:01,15.0880169,0.0001578,53.2167,307.7793,43.3259,37.9709,0.0033924,0.0005406,0.0,0 STARLINK-3612,1 51770U 22017C   22253.58334491  .00054060  00000-0  33924-2 0  9991,2 51770  53.2167 307.7793 0001578  43.3259  37.9709 15.08801690  1306,6917.996999999999,95.44,540.9540000000002,538.771,0.0
51770.0,STARLINK-3612,PAYLOAD,2022-09-10 22:00:00,15.08825327,0.0001393,53.2168,306.2812,47.9146,44.9527,0.00089345,0.00013954,0.0,0 STARLINK-3612,1 51770U 22017C   22253.91667824  .00013954  00000-0  89345-3 0  9993,2 51770  53.2168 306.2812 0001393  47.9146  44.9527 15.08825327  1302,6917.925,95.438,540.754,538.827,0.0
51770.0,STARLINK-3612,PAYLOAD,2022-09-11 14:00:01,15.0883697,0.0001616,53.2164,303.2899,43.6917,72.3682,0.0010298,0.00016138,0.0,0 STARLINK-3612,1 51770U 22017C   22254.58334491  .00016138  00000-0  10298-2 0  9995,2 51770  53.2164 303.2899 0001616  43.6917  72.3682 15.08836970  1300,6917.89,95.438,540.873,538.637,0.0
51770.0,STARLINK-3612,PAYLOAD,2022-09-11 22:00:00,15.08820237,0.0001469,53.2164,301.7918,50.5185,77.1496,0.0013447,0.00021166,0.0,0 STARLINK-3612,1 51770U 22017C   22254.91667824  .00021166  00000-0  13447-2 0  9997,2 51770  53.2164 301.7918 0001469  50.5185  77.1496 15.08820237  1300,6917.941,95.439,540.822,538.79,0.0
51770.0,STARLINK-3612,PAYLOAD,2022-09-12 06:00:00,15.0886644,0.0001512,53.2164,300.2957,51.8498,87.3945,-0.0031294,-0.00049784,0.0,0 STARLINK-3612,1 51770U 22017C   22255.25001157 -.00049784  00000-0 -31294-2 0  9994,2 51770  53.2164 300.2957 0001512  51.8498  87.3945 15.08866440 31656,6917.8,95.436,540.711,538.619,0.0
51770.0,STARLINK-3612,PAYLOAD,2022-09-12 14:00:01,15.088039300000002,0.000159,53.2159,298.8005,43.1369,107.7213,0.0029286,0.00046583,0.0,0 STARLINK-3612,1 51770U 22017C   22255.58334491  .00046583  00000-0  29286-2 0  9990,2 51770  53.2159 298.8005 0001590  43.1369 107.7213 15.08803930  1302,6917.991,95.44,540.956,538.756,0.0
51770.0,STARLINK-3612,PAYLOAD,2022-09-12 22:00:00,15.08816224,0.0001399,53.2159,297.3023,48.9235,113.5128,0.0019468,0.00030811,0.0,0 STARLINK-3612,1 51770U 22017C   22255.91667824  .00030811  00000-0  19468-2 0  9994,2 51770  53.2159 297.3023 0001399  48.9235 113.5128 15.08816224 31761,6917.953,95.439,540.786,538.85,0.0
51770.0,STARLINK-3612,PAYLOAD,2022-09-13 14:00:01,15.08840456,0.0001655,53.2155,294.311,45.6654,139.9592,4.8664e-06,-2.11e-06,0.0,0 STARLINK-3612,1 51770U 22017C   22256.58334491 -.00000211  00000-0  48664-5 0  9994,2 51770  53.2155 294.3110 0001655  45.6654 139.9592 15.08840456  1303,6917.879,95.438,540.889,538.599,0.0
51770.0,STARLINK-3612,PAYLOAD,2022-09-13 18:00:00,15.08851148,0.0001621999999999,53.2158,293.5618,47.4359,323.9864,-0.0024297,-0.00038761,0.0,0 STARLINK-3612,1 51770U 22017C   22256.75001157 -.00038761  00000-0 -24297-2 0  9998,2 51770  53.2158 293.5618 0001622  47.4359 323.9864 15.08851148 31889,6917.846,95.437,540.8330000000002,538.589,0.0
51770.0,STARLINK-3612,PAYLOAD,2022-09-13 22:00:00,15.08806785,0.000152,53.2156,292.8128,53.0967,144.1187,0.002209,0.00035011,0.0,0 STARLINK-3612,1 51770U 22017C   22256.91667824  .00035011  00000-0  22090-2 0  9997,2 51770  53.2156 292.8128 0001520  53.0967 144.1187 15.08806785  1302,6917.982,95.44,540.898,538.795,0.0
51770.0,STARLINK-3612,PAYLOAD,2022-09-14 14:00:01,15.08823667,0.0001714,53.2152,289.8215,47.4811,172.8968,0.0019882999999999,0.00031484,0.0,0 STARLINK-3612,1 51770U 22017C   22257.58334491  .00031484  00000-0  19883-2 0  9998,2 51770  53.2152 289.8215 0001714  47.4811 172.8968 15.08823667 32016,6917.93,95.439,540.981,538.61,0.0
51770.0,STARLINK-3612,PAYLOAD,2022-09-14 22:00:00,15.08837944,0.0001549,53.2164,288.3237,50.8181,181.1611,-0.0038821,-0.00061541,0.0,0 STARLINK-3612,1 51770U 22017C   22257.91667824 -.00061541  00000-0 -38821-2 0  9996,2 51770  53.2164 288.3237 0001549  50.8181 181.1611 15.08837944  1300,6917.887,95.438,540.823,538.68,0.0
51770.0,STARLINK-3612,PAYLOAD,2022-09-15 06:00:00,15.08835614,0.0001602,53.2153,286.8278,51.0797,192.4754,-0.0011979,-0.000193,0.0,0 STARLINK-3612,1 51770U 22017C   22258.25001157 -.00019300  00000-0 -11979-2 0  9996,2 51770  53.2153 286.8278 0001602  51.0797 192.4754 15.08835614 32110,6917.894,95.438,540.867,538.651,0.0
51770.0,STARLINK-3612,PAYLOAD,2022-09-15 14:00:01,15.08820082,0.0001708,53.2151,285.3321,45.1787,209.9597,0.0020829,0.00032999,0.0,0 STARLINK-3612,1 51770U 22017C   22258.58334491  .00032999  00000-0  20829-2 0  9993,2 51770  53.2151 285.3321 0001708  45.1787 209.9597 15.08820082  1300,6917.941,95.439,540.988,538.625,0.0
51770.0,STARLINK-3612,PAYLOAD,2022-09-15 19:13:59,15.08834669,0.0001659,53.2171,284.3518,48.5979,311.5156,-4.0518e-06,-3.53e-06,0.0,0 STARLINK-3612,1 51770U 22017C   22258.80138219 -.00000353  00000-0 -40518-5 0  9999,2 51770  53.2171 284.3518 0001659  48.5979 311.5156 15.08834669 32192,6917.897,95.438,540.909,538.614,0.0
51770.0,STARLINK-3612,PAYLOAD,2022-09-16 11:07:50,15.08839612,0.0001653,53.2168,281.3778,50.6224,309.4915,6.892399999999999e-05,8.09e-06,0.0,0 STARLINK-3612,1 51770U 22017C   22259.46377767  .00000809  00000-0  68924-4 0  9999,2 51770  53.2168 281.3778 0001653  50.6224 309.4915 15.08839612 30857,6917.882,95.438,540.89,538.6030000000002,0.0
51770.0,STARLINK-3612,PAYLOAD,2022-09-16 12:43:13,15.08841097,0.0001661,53.2169,281.0806,51.0139,309.1001,8.0429e-05,9.92e-06,0.0,0 STARLINK-3612,1 51770U 22017C   22259.53001632  .00000992  00000-0  80429-4 0  9999,2 51770  53.2169 281.0806 0001661  51.0139 309.1001 15.08841097 32301,6917.877,95.437,540.891,538.5930000000002,0.0
51770.0,STARLINK-3612,PAYLOAD,2022-09-17 04:37:05,15.08834125,0.0001661,53.217,278.1068,51.6778,308.4363,3.8049e-05,3.17e-06,0.0,0 STARLINK-3612,1 51770U 22017C   22260.19242139  .00000317  00000-0  38049-4 0  9994,2 51770  53.2170 278.1068 0001661  51.6778 308.4363 15.08834125 32403,6917.898,95.438,540.9119999999998,538.614,0.0
51770.0,STARLINK-3612,PAYLOAD,2022-09-17 10:58:38,15.08831441,0.0001665999999999,53.217,276.9174,51.2008,308.9133,1.353e-05,-7.3e-07,0.0,0 STARLINK-3612,1 51770U 22017C   22260.45738495 -.00000073  00000-0  13530-4 0  9996,2 51770  53.2170 276.9174 0001666  51.2008 308.9133 15.08831441 31007,6917.906999999997,95.438,540.924,538.619,0.0
51770.0,STARLINK-3612,PAYLOAD,2022-09-17 12:34:01,15.08832687,0.0001666999999999,53.217,276.62,51.1119,309.0022,2.2625e-05,7.2e-07,0.0,0 STARLINK-3612,1 51770U 22017C   22260.52362409  .00000072  00000-0  22625-4 0  9995,2 51770  53.2170 276.6200 0001667  51.1119 309.0022 15.08832687 31010,6917.903,95.438,540.9209999999998,538.615,0.0
